[{"OBJECT_NAME":"RESURS-P 5","OBJECT_ID":"2024-250A","EPOCH":"2026-03-09T23:31:56.908992","MEAN_MOTION":15.32839945,"ECCENTRICITY":0.00026027,"INCLINATION":97.276,"RA_OF_ASC_NODE":355.9792,"ARG_OF_PERICENTER":63.1234,"MEAN_ANOMALY":297.0274,"EPHEMERIS_TYPE":0,"CLASSIFICATION_TYPE":"U","NORAD_CAT_ID":62430,"ELEMENT_SET_NO":999,"REV_AT_EPOCH":6735,"BSTAR":0.00015600887,"MEAN_MOTION_DOT":4.871e-5,"MEAN_MOTION_DDOT":0},{"OBJECT_NAME":"STARLINK-34593","OBJECT_ID":"2025-147D","EPOCH":"2026-03-09T21:27:20.531232","MEAN_MOTION":15.30208221,"ECCENTRICITY":0.00010274,"INCLINATION":53.158,"RA_OF_ASC_NODE":241.7582,"ARG_OF_PERICENTER":71.9251,"MEAN_ANOMALY":288.1861,"EPHEMERIS_TYPE":0,"CLASSIFICATION_TYPE":"U","NORAD_CAT_ID":64758,"ELEMENT_SET_NO":999,"REV_AT_EPOCH":3878,"BSTAR":0.0011448274,"MEAN_MOTION_DOT":0.0003371,"MEAN_MOTION_DDOT":0}]
